CCSDS_OMM_VERS = 2.0
CREATION_DATE  = 
ORIGINATOR     = 

OBJECT_NAME    = COSMOS 2228
OBJECT_ID      = 1992-094A
CENTER_NAME    = EARTH
REF_FRAME      = TEME
TIME_SYSTEM    = UTC
MEAN_ELEMENT_THEORY = SGP/SGP4

EPOCH          = 2025-11-23T02:25:37.096320
MEAN_MOTION    = 14.96596374
ECCENTRICITY   = .0016581
INCLINATION    = 82.5174
RA_OF_ASC_NODE = 339.3255
ARG_OF_PERICENTER = 303.9512
MEAN_ANOMALY   = 56.0134

EPHEMERIS_TYPE = 0
CLASSIFICATION_TYPE = U
NORAD_CAT_ID   = 22286
ELEMENT_SET_NO = 999
REV_AT_EPOCH   = 76011
BSTAR          = .19703E-3
MEAN_MOTION_DOT = .2274E-4
MEAN_MOTION_DDOT = 0

CCSDS_OMM_VERS = 2.0
CREATION_DATE  = 
ORIGINATOR     = 

OBJECT_NAME    = SL-16 R/B
OBJECT_ID      = 1993-016B
CENTER_NAME    = EARTH
REF_FRAME      = TEME
TIME_SYSTEM    = UTC
MEAN_ELEMENT_THEORY = SGP/SGP4

EPOCH          = 2025-11-22T18:34:27.371424
MEAN_MOTION    = 14.15287618
ECCENTRICITY   = .0008461
INCLINATION    = 71.0082
RA_OF_ASC_NODE = 79.7348
ARG_OF_PERICENTER = 134.7986
MEAN_ANOMALY   = 225.3826

EPHEMERIS_TYPE = 0
CLASSIFICATION_TYPE = U
NORAD_CAT_ID   = 22566
ELEMENT_SET_NO = 999
REV_AT_EPOCH   = 68704
BSTAR          = .12815E-3
MEAN_MOTION_DOT = .202E-5
MEAN_MOTION_DDOT = 0

CCSDS_OMM_VERS = 2.0
CREATION_DATE  = 
ORIGINATOR     = 

OBJECT_NAME    = COSMOS 2242
OBJECT_ID      = 1993-024A
CENTER_NAME    = EARTH
REF_FRAME      = TEME
TIME_SYSTEM    = UTC
MEAN_ELEMENT_THEORY = SGP/SGP4

EPOCH          = 2025-11-23T02:31:48.534240
MEAN_MOTION    = 14.95989459
ECCENTRICITY   = .001505
INCLINATION    = 82.5200
RA_OF_ASC_NODE = 8.6101
ARG_OF_PERICENTER = 306.9359
MEAN_ANOMALY   = 53.0484

EPHEMERIS_TYPE = 0
CLASSIFICATION_TYPE = U
NORAD_CAT_ID   = 22626
ELEMENT_SET_NO = 999
REV_AT_EPOCH   = 76445
BSTAR          = .15665E-3
MEAN_MOTION_DOT = .1785E-4
MEAN_MOTION_DDOT = 0

CCSDS_OMM_VERS = 2.0
CREATION_DATE  = 
ORIGINATOR     = 

OBJECT_NAME    = SL-16 R/B
OBJECT_ID      = 1993-059B
CENTER_NAME    = EARTH
REF_FRAME      = TEME
TIME_SYSTEM    = UTC
MEAN_ELEMENT_THEORY = SGP/SGP4

EPOCH          = 2025-11-23T02:38:48.513408
MEAN_MOTION    = 14.17208343
ECCENTRICITY   = .0016814
INCLINATION    = 70.9900
RA_OF_ASC_NODE = 235.8771
ARG_OF_PERICENTER = 4.7032
MEAN_ANOMALY   = 355.4247

EPHEMERIS_TYPE = 0
CLASSIFICATION_TYPE = U
NORAD_CAT_ID   = 22803
ELEMENT_SET_NO = 999
REV_AT_EPOCH   = 66443
BSTAR          = -.70143E-4
MEAN_MOTION_DOT = -.19E-5
MEAN_MOTION_DDOT = 0

CCSDS_OMM_VERS = 2.0
CREATION_DATE  = 
ORIGINATOR     = 

OBJECT_NAME    = ARIANE 40 R/B
OBJECT_ID      = 1993-061H
CENTER_NAME    = EARTH
REF_FRAME      = TEME
TIME_SYSTEM    = UTC
MEAN_ELEMENT_THEORY = SGP/SGP4

EPOCH          = 2025-11-23T03:13:49.013184
MEAN_MOTION    = 14.32783116
ECCENTRICITY   = .0009839
INCLINATION    = 98.5099
RA_OF_ASC_NODE = 33.0193
ARG_OF_PERICENTER = 235.9077
MEAN_ANOMALY   = 124.1174

EPHEMERIS_TYPE = 0
CLASSIFICATION_TYPE = U
NORAD_CAT_ID   = 22830
ELEMENT_SET_NO = 999
REV_AT_EPOCH   = 67884
BSTAR          = .11699E-3
MEAN_MOTION_DOT = .276E-5
MEAN_MOTION_DDOT = 0

CCSDS_OMM_VERS = 2.0
CREATION_DATE  = 
ORIGINATOR     = 

OBJECT_NAME    = COSMOS 2278
OBJECT_ID      = 1994-023A
CENTER_NAME    = EARTH
REF_FRAME      = TEME
TIME_SYSTEM    = UTC
MEAN_ELEMENT_THEORY = SGP/SGP4

EPOCH          = 2025-11-22T15:53:29.844672
MEAN_MOTION    = 14.14347172
ECCENTRICITY   = .0009499
INCLINATION    = 71.0557
RA_OF_ASC_NODE = 39.0148
ARG_OF_PERICENTER = 206.1271
MEAN_ANOMALY   = 153.9373

EPHEMERIS_TYPE = 0
CLASSIFICATION_TYPE = U
NORAD_CAT_ID   = 23087
ELEMENT_SET_NO = 999
REV_AT_EPOCH   = 62967
BSTAR          = .17864E-3
MEAN_MOTION_DOT = .295E-5
MEAN_MOTION_DDOT = 0

CCSDS_OMM_VERS = 2.0
CREATION_DATE  = 
ORIGINATOR     = 

OBJECT_NAME    = SL-16 R/B
OBJECT_ID      = 1994-023B
CENTER_NAME    = EARTH
REF_FRAME      = TEME
TIME_SYSTEM    = UTC
MEAN_ELEMENT_THEORY = SGP/SGP4

EPOCH          = 2025-11-23T02:39:47.552256
MEAN_MOTION    = 14.14991399
ECCENTRICITY   = .0001145
INCLINATION    = 70.9989
RA_OF_ASC_NODE = 294.7067
ARG_OF_PERICENTER = 124.3400
MEAN_ANOMALY   = 235.7831

EPHEMERIS_TYPE = 0
CLASSIFICATION_TYPE = U
NORAD_CAT_ID   = 23088
ELEMENT_SET_NO = 999
REV_AT_EPOCH   = 63101
BSTAR          = .41295E-4
MEAN_MOTION_DOT = .32E-6
MEAN_MOTION_DDOT = 0

CCSDS_OMM_VERS = 2.0
CREATION_DATE  = 
ORIGINATOR     = 

OBJECT_NAME    = SL-16 R/B
OBJECT_ID      = 1994-074B
CENTER_NAME    = EARTH
REF_FRAME      = TEME
TIME_SYSTEM    = UTC
MEAN_ELEMENT_THEORY = SGP/SGP4

EPOCH          = 2025-11-23T01:22:25.867776
MEAN_MOTION    = 14.79256686
ECCENTRICITY   = .0006043
INCLINATION    = 97.7225
RA_OF_ASC_NODE = 357.1422
ARG_OF_PERICENTER = 196.5286
MEAN_ANOMALY   = 217.2433

EPHEMERIS_TYPE = 0
CLASSIFICATION_TYPE = U
NORAD_CAT_ID   = 23343
ELEMENT_SET_NO = 999
REV_AT_EPOCH   = 67148
BSTAR          = .76496E-4
MEAN_MOTION_DOT = .519E-5
MEAN_MOTION_DDOT = 0

CCSDS_OMM_VERS = 2.0
CREATION_DATE  = 
ORIGINATOR     = 

OBJECT_NAME    = SL-16 R/B
OBJECT_ID      = 1994-077B
CENTER_NAME    = EARTH
REF_FRAME      = TEME
TIME_SYSTEM    = UTC
MEAN_ELEMENT_THEORY = SGP/SGP4

EPOCH          = 2025-11-23T01:31:22.350432
MEAN_MOTION    = 14.15547874
ECCENTRICITY   = .0004511
INCLINATION    = 70.9826
RA_OF_ASC_NODE = 216.8062
ARG_OF_PERICENTER = 299.9514
MEAN_ANOMALY   = 60.1160

EPHEMERIS_TYPE = 0
CLASSIFICATION_TYPE = U
NORAD_CAT_ID   = 23405
ELEMENT_SET_NO = 999
REV_AT_EPOCH   = 60114
BSTAR          = -.53012E-4
MEAN_MOTION_DOT = -.152E-5
MEAN_MOTION_DDOT = 0

CCSDS_OMM_VERS = 2.0
CREATION_DATE  = 
ORIGINATOR     = 

OBJECT_NAME    = ARIANE 40+ R/B
OBJECT_ID      = 1995-021B
CENTER_NAME    = EARTH
REF_FRAME      = TEME
TIME_SYSTEM    = UTC
MEAN_ELEMENT_THEORY = SGP/SGP4

EPOCH          = 2025-11-23T03:16:32.752416
MEAN_MOTION    = 14.39673427
ECCENTRICITY   = .0007916
INCLINATION    = 98.4674
RA_OF_ASC_NODE = 34.9601
ARG_OF_PERICENTER = 100.9218
MEAN_ANOMALY   = 314.3451

EPHEMERIS_TYPE = 0
CLASSIFICATION_TYPE = U
NORAD_CAT_ID   = 23561
ELEMENT_SET_NO = 999
REV_AT_EPOCH   = 60391
BSTAR          = .12924E-3
MEAN_MOTION_DOT = .361E-5
MEAN_MOTION_DDOT = 0

CCSDS_OMM_VERS = 2.0
CREATION_DATE  = 
ORIGINATOR     = 

OBJECT_NAME    = SL-16 R/B
OBJECT_ID      = 1995-058B
CENTER_NAME    = EARTH
REF_FRAME      = TEME
TIME_SYSTEM    = UTC
MEAN_ELEMENT_THEORY = SGP/SGP4

EPOCH          = 2025-11-22T15:23:15.114624
MEAN_MOTION    = 14.15474756
ECCENTRICITY   = .0014945
INCLINATION    = 71.0225
RA_OF_ASC_NODE = 45.0004
ARG_OF_PERICENTER = 280.8296
MEAN_ANOMALY   = 79.1144

EPHEMERIS_TYPE = 0
CLASSIFICATION_TYPE = U
NORAD_CAT_ID   = 23705
ELEMENT_SET_NO = 999
REV_AT_EPOCH   = 55270
BSTAR          = -.55976E-4
MEAN_MOTION_DOT = -.157E-5
MEAN_MOTION_DDOT = 0

CCSDS_OMM_VERS = 2.0
CREATION_DATE  = 
ORIGINATOR     = 

OBJECT_NAME    = SL-16 R/B
OBJECT_ID      = 1996-051B
CENTER_NAME    = EARTH
REF_FRAME      = TEME
TIME_SYSTEM    = UTC
MEAN_ELEMENT_THEORY = SGP/SGP4

EPOCH          = 2025-11-22T15:48:05.880096
MEAN_MOTION    = 14.12393949
ECCENTRICITY   = .0018683
INCLINATION    = 70.7609
RA_OF_ASC_NODE = 41.7889
ARG_OF_PERICENTER = 286.3674
MEAN_ANOMALY   = 73.5391

EPHEMERIS_TYPE = 0
CLASSIFICATION_TYPE = U
NORAD_CAT_ID   = 24298
ELEMENT_SET_NO = 999
REV_AT_EPOCH   = 50653
BSTAR          = .15486E-4
MEAN_MOTION_DOT = -.21E-6
MEAN_MOTION_DDOT = 0

