COSMOS 2228             
1 22286U 92094A   25327.10112380  .00002274  00000+0  19703-3 0  9996
2 22286  82.5174 339.3255 0016581 303.9512  56.0134 14.96596374760111
SL-16 R/B               
1 22566U 93016B   25326.77392791  .00000202  00000+0  12815-3 0  9996
2 22566  71.0082  79.7348 0008461 134.7986 225.3826 14.15287618687042
COSMOS 2242             
1 22626U 93024A   25327.10542285  .00001785  00000+0  15665-3 0  9998
2 22626  82.5200   8.6101 0015050 306.9359  53.0484 14.95989459764452
SL-16 R/B               
1 22803U 93059B   25327.11028372 -.00000190  00000+0 -70143-4 0  9994
2 22803  70.9900 235.8771 0016814   4.7032 355.4247 14.17208343664437
ARIANE 40 R/B           
1 22830U 93061H   25327.13459506  .00000276  00000+0  11699-3 0  9999
2 22830  98.5099  33.0193 0009839 235.9077 124.1174 14.32783116678847
COSMOS 2278             
1 23087U 94023A   25326.66215098  .00000295  00000+0  17864-3 0  9997
2 23087  71.0557  39.0148 0009499 206.1271 153.9373 14.14347172629677
SL-16 R/B               
1 23088U 94023B   25327.11096704  .00000032  00000+0  41295-4 0  9995
2 23088  70.9989 294.7067 0001145 124.3400 235.7831 14.14991399631015
SL-16 R/B               
1 23343U 94074B   25327.05724384  .00000519  00000+0  76496-4 0  9991
2 23343  97.7225 357.1422 0006043 196.5286 217.2433 14.79256686671485
SL-16 R/B               
1 23405U 94077B   25327.06345313 -.00000152  00000+0 -53012-4 0  9999
2 23405  70.9826 216.8062 0004511 299.9514  60.1160 14.15547874601145
ARIANE 40+ R/B          
1 23561U 95021B   25327.13649019  .00000361  00000+0  12924-3 0  9996
2 23561  98.4674  34.9601 0007916 100.9218 314.3451 14.39673427603910
SL-16 R/B               
1 23705U 95058B   25326.64114716 -.00000157  00000+0 -55976-4 0  9992
2 23705  71.0225  45.0004 0014945 280.8296  79.1144 14.15474756552706
SL-16 R/B               
1 24298U 96051B   25326.65840139 -.00000021  00000+0  15486-4 0  9991
2 24298  70.7609  41.7889 0018683 286.3674  73.5391 14.12393949506537
